{
"type": "FeatureCollection",
"name": "sporting",
"crs": { "type": "name", "properties": { "name": "urn:ogc:def:crs:OGC:1.3:CRS84" } },
"features": [
{ "type": "Feature", "properties": { "identifier": "77aa5b1c-e721-5ff4-a36a-91271de1d4cb", "name": "ABOYNE", "stype": "GLIDER", "upperLimit": 1460, "upperLimit_uom": "FT", "upperLimitReference": "MSL", "lowerLimit": 0, "lowerLimit_uom": "FT", "lowerLimitReference": "SFC", "channel": "118.665" }, "geometry": { "type": "Point", "coordinates": [ -2.834722222222223, 57.075 ] } },
{ "type": "Feature", "properties": { "identifier": "a6a83d68-532a-5c69-af23-c420d2b133ea", "name": "ANDREAS", "stype": "GLIDER", "upperLimit": 2110, "upperLimit_uom": "FT", "upperLimitReference": "MSL", "lowerLimit": 0, "lowerLimit_uom": "FT", "lowerLimitReference": "SFC", "channel": null }, "geometry": { "type": "Point", "coordinates": [ -4.423333333333334, 54.369444444444447 ] } },
{ "type": "Feature", "properties": { "identifier": "b85af915-ebf3-50a7-8a7a-b4eaef2cc1f5", "name": "ANDREAS", "stype": "MICROLIGHT", "upperLimit": 1110, "upperLimit_uom": "FT", "upperLimitReference": "MSL", "lowerLimit": 0, "lowerLimit_uom": "FT", "lowerLimitReference": "SFC", "channel": null }, "geometry": { "type": "Point", "coordinates": [ -4.423333333333334, 54.369444444444447 ] } },
{ "type": "Feature", "properties": { "identifier": "f9f50080-efe8-51dd-a119-bdc8a6fa47ad", "name": "ASTON DOWN", "stype": "GLIDER", "upperLimit": 3600, "upperLimit_uom": "FT", "upperLimitReference": "MSL", "lowerLimit": 0, "lowerLimit_uom": "FT", "lowerLimitReference": "SFC", "channel": "118.665" }, "geometry": { "type": "Point", "coordinates": [ -2.130555555555556, 51.707777777777778 ] } },
{ "type": "Feature", "properties": { "identifier": "ddc3f97b-f26f-51f6-916d-fff6e1ece8d9", "name": "ATHEY'S MOOR", "stype": "MICROLIGHT", "upperLimit": 1413, "upperLimit_uom": "FT", "upperLimitReference": "MSL", "lowerLimit": 0, "lowerLimit_uom": "FT", "lowerLimitReference": "SFC", "channel": null }, "geometry": { "type": "Point", "coordinates": [ -1.786666666666667, 55.316388888888888 ] } },
{ "type": "Feature", "properties": { "identifier": "cefd6c14-8e37-5786-886a-bf218faa753c", "name": "BAGBY", "stype": "MICROLIGHT", "upperLimit": 1160, "upperLimit_uom": "FT", "upperLimitReference": "MSL", "lowerLimit": 0, "lowerLimit_uom": "FT", "lowerLimitReference": "SFC", "channel": null }, "geometry": { "type": "Point", "coordinates": [ -1.29, 54.211111111111116 ] } },
{ "type": "Feature", "properties": { "identifier": "ab5f1f03-efc7-5156-9766-d16c97233ab0", "name": "BAGBY", "stype": "TRAINING", "upperLimit": 1160, "upperLimit_uom": "FT", "upperLimitReference": "MSL", "lowerLimit": 0, "lowerLimit_uom": "FT", "lowerLimitReference": "SFC", "channel": null }, "geometry": { "type": "Point", "coordinates": [ -1.293333333333333, 54.208333333333336 ] } },
{ "type": "Feature", "properties": { "identifier": "e7a1b7fc-a996-5be9-8f27-191fb758bd81", "name": "BALADO", "stype": "TRAINING", "upperLimit": 1423, "upperLimit_uom": "FT", "upperLimitReference": "MSL", "lowerLimit": 0, "lowerLimit_uom": "FT", "lowerLimitReference": "SFC", "channel": "118.605" }, "geometry": { "type": "Point", "coordinates": [ -3.460277777777778, 56.216666666666669 ] } },
{ "type": "Feature", "properties": { "identifier": "c4644b77-1f54-510d-a958-125cd6553b2d", "name": "BECCLES", "stype": "TRAINING", "upperLimit": 1080, "upperLimit_uom": "FT", "upperLimitReference": "MSL", "lowerLimit": 0, "lowerLimit_uom": "FT", "lowerLimitReference": "SFC", "channel": null }, "geometry": { "type": "Point", "coordinates": [ 1.618333333333333, 52.435277777777777 ] } },
{ "type": "Feature", "properties": { "identifier": "005ad8e3-a1ba-5ddc-a1e8-ffefcc6a3e43", "name": "BEDLANDS GATE", "stype": "MICROLIGHT", "upperLimit": 1850, "upperLimit_uom": "FT", "upperLimitReference": "MSL", "lowerLimit": 0, "lowerLimit_uom": "FT", "lowerLimitReference": "SFC", "channel": null }, "geometry": { "type": "Point", "coordinates": [ -2.670833333333333, 54.570555555555558 ] } },
{ "type": "Feature", "properties": { "identifier": "3c97d583-ab3d-58dc-8df6-6e04f23fa9dc", "name": "BELLARENA", "stype": "GLIDER", "upperLimit": 2015, "upperLimit_uom": "FT", "upperLimitReference": "MSL", "lowerLimit": 0, "lowerLimit_uom": "FT", "lowerLimitReference": "SFC", "channel": null }, "geometry": { "type": "Point", "coordinates": [ -6.965833333333333, 55.143333333333331 ] } },
{ "type": "Feature", "properties": { "identifier": "82fe7dd3-41c6-5960-b75f-bfaf7af5510d", "name": "BELLE VUE", "stype": "MICROLIGHT", "upperLimit": 1675, "upperLimit_uom": "FT", "upperLimitReference": "MSL", "lowerLimit": 0, "lowerLimit_uom": "FT", "lowerLimitReference": "SFC", "channel": null }, "geometry": { "type": "Point", "coordinates": [ -4.09, 50.974722222222226 ] } },
{ "type": "Feature", "properties": { "identifier": "91d9bdec-dfd1-5097-b5c2-12c2e628d9ca", "name": "BEMBRIDGE", "stype": "GLIDER", "upperLimit": 1055, "upperLimit_uom": "FT", "upperLimitReference": "MSL", "lowerLimit": 0, "lowerLimit_uom": "FT", "lowerLimitReference": "SFC", "channel": null }, "geometry": { "type": "Point", "coordinates": [ -1.109166666666667, 50.678055555555552 ] } },
{ "type": "Feature", "properties": { "identifier": "34310767-8ccb-5f15-9ef6-163570b724f2", "name": "BENONE STRAND", "stype": "GLIDER", "upperLimit": 2000, "upperLimit_uom": "FT", "upperLimitReference": "MSL", "lowerLimit": 0, "lowerLimit_uom": "FT", "lowerLimitReference": "SFC", "channel": null }, "geometry": { "type": "Point", "coordinates": [ -6.859166666666666, 55.166666666666664 ] } },
{ "type": "Feature", "properties": { "identifier": "4bab1aaa-aef3-5939-9b1f-8a6f4b2b4b75", "name": "BEVERLEY / LINLEY HILL AIRFIELD", "stype": "TRAINING", "upperLimit": 1003, "upperLimit_uom": "FT", "upperLimitReference": "MSL", "lowerLimit": 0, "lowerLimit_uom": "FT", "lowerLimitReference": "SFC", "channel": null }, "geometry": { "type": "Point", "coordinates": [ -0.361388888888889, 53.898055555555558 ] } },
{ "type": "Feature", "properties": { "identifier": "73b4ad0c-8eb0-5355-a354-19ff19b553cd", "name": "BICESTER AERODROME", "stype": "GLIDER", "upperLimit": 2267, "upperLimit_uom": "FT", "upperLimitReference": "MSL", "lowerLimit": 0, "lowerLimit_uom": "FT", "lowerLimitReference": "SFC", "channel": "118.390" }, "geometry": { "type": "Point", "coordinates": [ -1.132222222222222, 51.916111111111107 ] } },
{ "type": "Feature", "properties": { "identifier": "69ad3583-d64a-5e19-b60d-9050b95cfacb", "name": "BIDFORD", "stype": "GLIDER", "upperLimit": 1135, "upperLimit_uom": "FT", "upperLimitReference": "MSL", "lowerLimit": 0, "lowerLimit_uom": "FT", "lowerLimitReference": "SFC", "channel": null }, "geometry": { "type": "Point", "coordinates": [ -1.850833333333333, 52.134166666666665 ] } },
{ "type": "Feature", "properties": { "identifier": "61c41934-7b70-58ba-9cd0-66b190055b4a", "name": "BOGNOR REGIS", "stype": "GLIDER", "upperLimit": 2510, "upperLimit_uom": "FT", "upperLimitReference": "MSL", "lowerLimit": 0, "lowerLimit_uom": "FT", "lowerLimitReference": "SFC", "channel": null }, "geometry": { "type": "Point", "coordinates": [ -0.659444444444444, 50.801111111111105 ] } },
{ "type": "Feature", "properties": { "identifier": "da6a583e-6a04-5a67-8dd6-1bdbac724350", "name": "BONNINGTON", "stype": "MICROLIGHT", "upperLimit": 1003, "upperLimit_uom": "FT", "upperLimitReference": "MSL", "lowerLimit": 0, "lowerLimit_uom": "FT", "lowerLimitReference": "SFC", "channel": null }, "geometry": { "type": "Point", "coordinates": [ 0.948055555555556, 51.058888888888887 ] } },
{ "type": "Feature", "properties": { "identifier": "6eeca78a-d32d-564d-a002-2af9ce7e4bf1", "name": "BRENT TOR", "stype": "GLIDER", "upperLimit": 2820, "upperLimit_uom": "FT", "upperLimitReference": "MSL", "lowerLimit": 0, "lowerLimit_uom": "FT", "lowerLimitReference": "SFC", "channel": "129.965" }, "geometry": { "type": "Point", "coordinates": [ -4.147222222222223, 50.588055555555556 ] } },
{ "type": "Feature", "properties": { "identifier": "86ab078a-80c2-5455-9fd8-ccd206d58e9d", "name": "BRIMPTON", "stype": "MICROLIGHT", "upperLimit": 1190, "upperLimit_uom": "FT", "upperLimitReference": "MSL", "lowerLimit": 0, "lowerLimit_uom": "FT", "lowerLimitReference": "SFC", "channel": null }, "geometry": { "type": "Point", "coordinates": [ -1.17, 51.38388888888889 ] } },
{ "type": "Feature", "properties": { "identifier": "0bc9c10e-b549-5246-8a3d-6ec035d7cd53", "name": "BRIMPTON", "stype": "TRAINING", "upperLimit": 1190, "upperLimit_uom": "FT", "upperLimitReference": "MSL", "lowerLimit": 0, "lowerLimit_uom": "FT", "lowerLimitReference": "SFC", "channel": null }, "geometry": { "type": "Point", "coordinates": [ -1.17, 51.38388888888889 ] } },
{ "type": "Feature", "properties": { "identifier": "c99457e2-b593-5da4-b028-fcf057aad8c5", "name": "BUCKNALL", "stype": "MICROLIGHT", "upperLimit": 1050, "upperLimit_uom": "FT", "upperLimitReference": "MSL", "lowerLimit": 0, "lowerLimit_uom": "FT", "lowerLimitReference": "SFC", "channel": null }, "geometry": { "type": "Point", "coordinates": [ -0.254444444444444, 53.199722222222221 ] } },
{ "type": "Feature", "properties": { "identifier": "7dd7ecd0-1b27-5796-b1a3-716c7aed8637", "name": "BURN", "stype": "GLIDER", "upperLimit": 3020, "upperLimit_uom": "FT", "upperLimitReference": "MSL", "lowerLimit": 0, "lowerLimit_uom": "FT", "lowerLimitReference": "SFC", "channel": "130.290" }, "geometry": { "type": "Point", "coordinates": [ -1.084444444444444, 53.745833333333337 ] } },
{ "type": "Feature", "properties": { "identifier": "ca00379f-5800-5c7f-b882-d81c2d942d97", "name": "CAE MAWR TYDDYN HEN", "stype": "MICROLIGHT", "upperLimit": 1200, "upperLimit_uom": "FT", "upperLimitReference": "MSL", "lowerLimit": 0, "lowerLimit_uom": "FT", "lowerLimitReference": "SFC", "channel": null }, "geometry": { "type": "Point", "coordinates": [ -4.234444444444445, 53.1575 ] } },
{ "type": "Feature", "properties": { "identifier": "9bb11ab0-3015-567f-9269-24ff92cede29", "name": "CALTONMOOR", "stype": "MICROLIGHT", "upperLimit": 1990, "upperLimit_uom": "FT", "upperLimitReference": "MSL", "lowerLimit": 0, "lowerLimit_uom": "FT", "lowerLimitReference": "SFC", "channel": null }, "geometry": { "type": "Point", "coordinates": [ -1.833055555555555, 53.033611111111107 ] } },
{ "type": "Feature", "properties": { "identifier": "c50fcd9c-b5bd-53e0-98f9-b33e0bb37be9", "name": "CAMPHILL", "stype": "GLIDER", "upperLimit": 3350, "upperLimit_uom": "FT", "upperLimitReference": "MSL", "lowerLimit": 0, "lowerLimit_uom": "FT", "lowerLimitReference": "SFC", "channel": "124.965" }, "geometry": { "type": "Point", "coordinates": [ -1.731388888888889, 53.305 ] } },
{ "type": "Feature", "properties": { "identifier": "f1f17fde-b853-5d47-b156-39cf2077788b", "name": "CATTON", "stype": "MICROLIGHT", "upperLimit": 1230, "upperLimit_uom": "FT", "upperLimitReference": "MSL", "lowerLimit": 0, "lowerLimit_uom": "FT", "lowerLimitReference": "SFC", "channel": null }, "geometry": { "type": "Point", "coordinates": [ -1.668333333333333, 52.727777777777781 ] } },
{ "type": "Feature", "properties": { "identifier": "e3fa9cc3-2bbd-5c2b-af85-105e0af26ba8", "name": "CAUNTON", "stype": "MICROLIGHT", "upperLimit": 1160, "upperLimit_uom": "FT", "upperLimitReference": "MSL", "lowerLimit": 0, "lowerLimit_uom": "FT", "lowerLimitReference": "SFC", "channel": null }, "geometry": { "type": "Point", "coordinates": [ -0.888333333333333, 53.12027777777778 ] } },
{ "type": "Feature", "properties": { "identifier": "127c8ef9-0c89-57a1-9927-157d1bae2450", "name": "CHALLOCK", "stype": "GLIDER", "upperLimit": 2600, "upperLimit_uom": "FT", "upperLimitReference": "MSL", "lowerLimit": 0, "lowerLimit_uom": "FT", "lowerLimitReference": "SFC", "channel": "122.915" }, "geometry": { "type": "Point", "coordinates": [ 0.829166666666667, 51.208333333333336 ] } },
{ "type": "Feature", "properties": { "identifier": "aebc0d77-5e65-51a3-bcf5-006b27fe8a4d", "name": "CHATTERIS", "stype": "MICROLIGHT", "upperLimit": 1005, "upperLimit_uom": "FT", "upperLimitReference": "MSL", "lowerLimit": 0, "lowerLimit_uom": "FT", "lowerLimitReference": "SFC", "channel": null }, "geometry": { "type": "Point", "coordinates": [ 0.089722222222222, 52.486111111111114 ] } },
{ "type": "Feature", "properties": { "identifier": "d6e8697c-2c3e-5ce6-bb92-a14c8f36ebdd", "name": "CHIPPING", "stype": "GLIDER", "upperLimit": 3600, "upperLimit_uom": "FT", "upperLimitReference": "MSL", "lowerLimit": 0, "lowerLimit_uom": "FT", "lowerLimitReference": "SFC", "channel": "118.685" }, "geometry": { "type": "Point", "coordinates": [ -2.620555555555556, 53.883611111111108 ] } },
{ "type": "Feature", "properties": { "identifier": "ab314b06-6b48-5b26-9b23-113989aa04f2", "name": "CHIRK", "stype": "MICROLIGHT", "upperLimit": 1430, "upperLimit_uom": "FT", "upperLimitReference": "MSL", "lowerLimit": 0, "lowerLimit_uom": "FT", "lowerLimitReference": "SFC", "channel": null }, "geometry": { "type": "Point", "coordinates": [ -3.045277777777778, 52.946944444444441 ] } },
{ "type": "Feature", "properties": { "identifier": "2527b13a-7c82-54a8-95cb-eb55821f2231", "name": "CLENCH COMMON", "stype": "MICROLIGHT", "upperLimit": 1623, "upperLimit_uom": "FT", "upperLimitReference": "MSL", "lowerLimit": 0, "lowerLimit_uom": "FT", "lowerLimitReference": "SFC", "channel": null }, "geometry": { "type": "Point", "coordinates": [ -1.736388888888889, 51.387222222222221 ] } },
{ "type": "Feature", "properties": { "identifier": "31ae5b39-86b9-5d88-acaa-c293466c8e6b", "name": "COLDHARBOUR FARM", "stype": "MICROLIGHT", "upperLimit": 1004, "upperLimit_uom": "FT", "upperLimitReference": "MSL", "lowerLimit": 0, "lowerLimit_uom": "FT", "lowerLimitReference": "SFC", "channel": null }, "geometry": { "type": "Point", "coordinates": [ 0.863611111111111, 50.990277777777777 ] } },
{ "type": "Feature", "properties": { "identifier": "e5d34886-0369-5a14-8d2f-ebf32a241093", "name": "COLEMORE COMMON", "stype": "MICROLIGHT", "upperLimit": 1610, "upperLimit_uom": "FT", "upperLimitReference": "MSL", "lowerLimit": 0, "lowerLimit_uom": "FT", "lowerLimitReference": "SFC", "channel": null }, "geometry": { "type": "Point", "coordinates": [ -1.009722222222222, 51.060555555555553 ] } },
{ "type": "Feature", "properties": { "identifier": "eb3c39c6-ea20-54df-88dd-f7d20c27ca35", "name": "CRANWELL (NORTH)", "stype": "GLIDER", "upperLimit": 3220, "upperLimit_uom": "FT", "upperLimitReference": "MSL", "lowerLimit": 0, "lowerLimit_uom": "FT", "lowerLimitReference": "SFC", "channel": "129.060" }, "geometry": { "type": "Point", "coordinates": [ -0.493333333333333, 53.041944444444439 ] } },
{ "type": "Feature", "properties": { "identifier": "8372dca0-ed87-5fd2-8587-8a27ec24e448", "name": "CROWLAND", "stype": "GLIDER", "upperLimit": 1010, "upperLimit_uom": "FT", "upperLimitReference": "MSL", "lowerLimit": 0, "lowerLimit_uom": "FT", "lowerLimitReference": "SFC", "channel": "129.980" }, "geometry": { "type": "Point", "coordinates": [ -0.142777777777778, 52.709166666666668 ] } },
{ "type": "Feature", "properties": { "identifier": "2af19af9-d0a3-5b6c-8d66-328b2d94277f", "name": "CULDROSE", "stype": "GLIDER", "upperLimit": 2267, "upperLimit_uom": "FT", "upperLimitReference": "MSL", "lowerLimit": 0, "lowerLimit_uom": "FT", "lowerLimitReference": "SFC", "channel": null }, "geometry": { "type": "Point", "coordinates": [ -5.255833333333333, 50.086111111111116 ] } },
{ "type": "Feature", "properties": { "identifier": "da279df6-46b2-5a04-bc6b-b1b3365c3467", "name": "CULTER HELIPAD", "stype": "TRAINING", "upperLimit": 1300, "upperLimit_uom": "FT", "upperLimitReference": "MSL", "lowerLimit": 0, "lowerLimit_uom": "FT", "lowerLimitReference": "SFC", "channel": null }, "geometry": { "type": "Point", "coordinates": [ -2.320833333333333, 57.119722222222222 ] } },
{ "type": "Feature", "properties": { "identifier": "bc3fa546-c23e-5ed6-b360-23435189b317", "name": "CURROCK HILL", "stype": "GLIDER", "upperLimit": 2800, "upperLimit_uom": "FT", "upperLimitReference": "MSL", "lowerLimit": 0, "lowerLimit_uom": "FT", "lowerLimitReference": "SFC", "channel": "125.185" }, "geometry": { "type": "Point", "coordinates": [ -1.845277777777778, 54.933888888888887 ] } },
{ "type": "Feature", "properties": { "identifier": "530bacfd-ddf0-5445-a947-c91754e57e7e", "name": "DAIRY HOUSE FARM", "stype": "MICROLIGHT", "upperLimit": 1150, "upperLimit_uom": "FT", "upperLimitReference": "MSL", "lowerLimit": 0, "lowerLimit_uom": "FT", "lowerLimitReference": "SFC", "channel": null }, "geometry": { "type": "Point", "coordinates": [ -2.504166666666667, 53.106388888888887 ] } },
{ "type": "Feature", "properties": { "identifier": "448ac10a-92c5-54a8-afc7-56d603b037a2", "name": "DAMYNS HALL", "stype": "TRAINING", "upperLimit": 1056, "upperLimit_uom": "FT", "upperLimitReference": "MSL", "lowerLimit": 0, "lowerLimit_uom": "FT", "lowerLimitReference": "SFC", "channel": "119.555" }, "geometry": { "type": "Point", "coordinates": [ 0.245555555555556, 51.528611111111111 ] } },
{ "type": "Feature", "properties": { "identifier": "fbbc6516-795c-51c0-9750-111bd7363cb0", "name": "DARLEY MOOR", "stype": "MICROLIGHT", "upperLimit": 1580, "upperLimit_uom": "FT", "upperLimitReference": "MSL", "lowerLimit": 0, "lowerLimit_uom": "FT", "lowerLimitReference": "SFC", "channel": null }, "geometry": { "type": "Point", "coordinates": [ -1.748333333333333, 52.970555555555556 ] } },
{ "type": "Feature", "properties": { "identifier": "c13585d6-7d2b-552f-bdfe-bc590f5b25d4", "name": "DARLTON", "stype": "GLIDER", "upperLimit": 2155, "upperLimit_uom": "FT", "upperLimitReference": "MSL", "lowerLimit": 0, "lowerLimit_uom": "FT", "lowerLimitReference": "SFC", "channel": null }, "geometry": { "type": "Point", "coordinates": [ -0.858888888888889, 53.245555555555555 ] } },
{ "type": "Feature", "properties": { "identifier": "d42a0cfd-b654-5820-80bc-08994b0d1f00", "name": "DAVIDSTOW MOOR", "stype": "MICROLIGHT", "upperLimit": 1969, "upperLimit_uom": "FT", "upperLimitReference": "MSL", "lowerLimit": 0, "lowerLimit_uom": "FT", "lowerLimitReference": "SFC", "channel": null }, "geometry": { "type": "Point", "coordinates": [ -4.61888888888889, 50.6375 ] } },
{ "type": "Feature", "properties": { "identifier": "745ddd4d-061b-5656-a845-fa45d3fe48c5", "name": "DUNSTABLE DOWNS", "stype": "GLIDER", "upperLimit": 2500, "upperLimit_uom": "FT", "upperLimitReference": "MSL", "lowerLimit": 0, "lowerLimit_uom": "FT", "lowerLimitReference": "SFC", "channel": null }, "geometry": { "type": "Point", "coordinates": [ -0.548333333333333, 51.866666666666667 ] } },
{ "type": "Feature", "properties": { "identifier": "d8f57603-542a-5121-869c-3088fb96f571", "name": "EAGLESCOTT", "stype": "GLIDER", "upperLimit": 2655, "upperLimit_uom": "FT", "upperLimitReference": "MSL", "lowerLimit": 0, "lowerLimit_uom": "FT", "lowerLimitReference": "SFC", "channel": null }, "geometry": { "type": "Point", "coordinates": [ -3.989444444444445, 50.928333333333327 ] } },
{ "type": "Feature", "properties": { "identifier": "5f0b6522-5310-5884-8165-319ce5804e3d", "name": "EAGLESCOTT", "stype": "TRAINING", "upperLimit": 1655, "upperLimit_uom": "FT", "upperLimitReference": "MSL", "lowerLimit": 0, "lowerLimit_uom": "FT", "lowerLimitReference": "SFC", "channel": null }, "geometry": { "type": "Point", "coordinates": [ -3.989444444444445, 50.92861111111111 ] } },
{ "type": "Feature", "properties": { "identifier": "92404668-ec1a-5c70-b607-3a18bd97641f", "name": "EAST FORTUNE", "stype": "MICROLIGHT", "upperLimit": 2120, "upperLimit_uom": "FT", "upperLimitReference": "MSL", "lowerLimit": 0, "lowerLimit_uom": "FT", "lowerLimitReference": "SFC", "channel": null }, "geometry": { "type": "Point", "coordinates": [ -2.734444444444445, 56.000833333333333 ] } },
{ "type": "Feature", "properties": { "identifier": "9e92ce07-08b3-5383-a4d2-7ebe6931b72b", "name": "EASTER", "stype": "TRAINING", "upperLimit": 1022, "upperLimit_uom": "FT", "upperLimitReference": "MSL", "lowerLimit": 0, "lowerLimit_uom": "FT", "lowerLimitReference": "SFC", "channel": null }, "geometry": { "type": "Point", "coordinates": [ -3.938888888888889, 57.751944444444447 ] } },
{ "type": "Feature", "properties": { "identifier": "b72a5d4e-960d-56f6-aec1-0ceb4803e63b", "name": "EASTERTON", "stype": "GLIDER", "upperLimit": 2361, "upperLimit_uom": "FT", "upperLimitReference": "MSL", "lowerLimit": 0, "lowerLimit_uom": "FT", "lowerLimitReference": "SFC", "channel": "130.290" }, "geometry": { "type": "Point", "coordinates": [ -3.311388888888889, 57.585555555555558 ] } },
{ "type": "Feature", "properties": { "identifier": "e561b221-00a4-59b9-83a4-8c25ad181fb3", "name": "EDGE HILL/SHENNINGTON", "stype": "GLIDER", "upperLimit": 3142, "upperLimit_uom": "FT", "upperLimitReference": "MSL", "lowerLimit": 0, "lowerLimit_uom": "FT", "lowerLimitReference": "SFC", "channel": "129.980" }, "geometry": { "type": "Point", "coordinates": [ -1.474444444444445, 52.085277777777783 ] } },
{ "type": "Feature", "properties": { "identifier": "d8529d25-ef11-513d-a810-e5f0d8222133", "name": "EGERTON", "stype": "MICROLIGHT", "upperLimit": 1165, "upperLimit_uom": "FT", "upperLimitReference": "MSL", "lowerLimit": 0, "lowerLimit_uom": "FT", "lowerLimitReference": "SFC", "channel": null }, "geometry": { "type": "Point", "coordinates": [ 0.692222222222222, 51.196944444444441 ] } },
{ "type": "Feature", "properties": { "identifier": "99826bb6-7efe-5853-8d19-cd3c477712b4", "name": "ENSTONE", "stype": "TRAINING", "upperLimit": 1550, "upperLimit_uom": "FT", "upperLimitReference": "MSL", "lowerLimit": 0, "lowerLimit_uom": "FT", "lowerLimitReference": "SFC", "channel": null }, "geometry": { "type": "Point", "coordinates": [ -1.428333333333333, 51.928055555555552 ] } },
{ "type": "Feature", "properties": { "identifier": "b51b716b-d3e6-5f7e-ba4e-9bf2b27b39f7", "name": "EYRES FIELD", "stype": "GLIDER", "upperLimit": 2205, "upperLimit_uom": "FT", "upperLimitReference": "MSL", "lowerLimit": 0, "lowerLimit_uom": "FT", "lowerLimitReference": "SFC", "channel": "132.910" }, "geometry": { "type": "Point", "coordinates": [ -2.219444444444445, 50.709166666666668 ] } },
{ "type": "Feature", "properties": { "identifier": "0f54efce-52c4-5cc5-adf5-1ae1e8f8a419", "name": "FALGUNZEON", "stype": "GLIDER", "upperLimit": 2600, "upperLimit_uom": "FT", "upperLimitReference": "MSL", "lowerLimit": 0, "lowerLimit_uom": "FT", "lowerLimitReference": "SFC", "channel": "129.965" }, "geometry": { "type": "Point", "coordinates": [ -3.74, 54.943888888888885 ] } },
{ "type": "Feature", "properties": { "identifier": "81ad1ce8-eddc-5fab-9a18-4addb67669b5", "name": "FESHIEBRIDGE", "stype": "GLIDER", "upperLimit": 2860, "upperLimit_uom": "FT", "upperLimitReference": "MSL", "lowerLimit": 0, "lowerLimit_uom": "FT", "lowerLimitReference": "SFC", "channel": null }, "geometry": { "type": "Point", "coordinates": [ -3.891666666666667, 57.103611111111114 ] } },
{ "type": "Feature", "properties": { "identifier": "3f223802-d7b1-5e4d-b848-778509882b99", "name": "FINMERE", "stype": "MICROLIGHT", "upperLimit": 1395, "upperLimit_uom": "FT", "upperLimitReference": "MSL", "lowerLimit": 0, "lowerLimit_uom": "FT", "lowerLimitReference": "SFC", "channel": null }, "geometry": { "type": "Point", "coordinates": [ -1.056388888888889, 51.985277777777782 ] } },
{ "type": "Feature", "properties": { "identifier": "ed47274d-1075-57f8-b453-1b31fdbe7530", "name": "FISHERWICK", "stype": "MICROLIGHT", "upperLimit": 1184, "upperLimit_uom": "FT", "upperLimitReference": "MSL", "lowerLimit": 0, "lowerLimit_uom": "FT", "lowerLimitReference": "SFC", "channel": null }, "geometry": { "type": "Point", "coordinates": [ -1.723611111111111, 52.673333333333332 ] } },
{ "type": "Feature", "properties": { "identifier": "a05469cd-93f8-5a19-b5bd-b7a5b645a9ad", "name": "FOWLMERE", "stype": "TRAINING", "upperLimit": 1117, "upperLimit_uom": "FT", "upperLimitReference": "MSL", "lowerLimit": 0, "lowerLimit_uom": "FT", "lowerLimitReference": "SFC", "channel": null }, "geometry": { "type": "Point", "coordinates": [ 0.061666666666667, 52.0775 ] } },
{ "type": "Feature", "properties": { "identifier": "68d33a7f-9f4e-5557-9679-140012cf8fd1", "name": "GLASSONBY", "stype": "MICROLIGHT", "upperLimit": 1600, "upperLimit_uom": "FT", "upperLimitReference": "MSL", "lowerLimit": 0, "lowerLimit_uom": "FT", "lowerLimitReference": "SFC", "channel": null }, "geometry": { "type": "Point", "coordinates": [ -2.651388888888889, 54.738333333333337 ] } },
{ "type": "Feature", "properties": { "identifier": "4c49f281-408e-57ff-a681-893e341ee76b", "name": "GLIDDEN FARM", "stype": "MICROLIGHT", "upperLimit": 1450, "upperLimit_uom": "FT", "upperLimitReference": "MSL", "lowerLimit": 0, "lowerLimit_uom": "FT", "lowerLimitReference": "SFC", "channel": null }, "geometry": { "type": "Point", "coordinates": [ -1.055, 50.934166666666663 ] } },
{ "type": "Feature", "properties": { "identifier": "728b30d0-de48-543f-a3fe-665c51a01630", "name": "GRANSDEN LODGE", "stype": "GLIDER", "upperLimit": 3254, "upperLimit_uom": "FT", "upperLimitReference": "MSL", "lowerLimit": 0, "lowerLimit_uom": "FT", "lowerLimitReference": "SFC", "channel": null }, "geometry": { "type": "Point", "coordinates": [ -0.114722222222222, 52.178055555555552 ] } },
{ "type": "Feature", "properties": { "identifier": "386eb03f-80d6-5c14-a2b7-00f7d4478f64", "name": "GRAVELEY", "stype": "MICROLIGHT", "upperLimit": 1395, "upperLimit_uom": "FT", "upperLimitReference": "MSL", "lowerLimit": 0, "lowerLimit_uom": "FT", "lowerLimitReference": "SFC", "channel": null }, "geometry": { "type": "Point", "coordinates": [ -0.203333333333333, 51.941111111111105 ] } },
{ "type": "Feature", "properties": { "identifier": "6a724c39-fc0b-5f24-a3a1-a3edb70d02c1", "name": "GREAT MASSINGHAM", "stype": "TRAINING", "upperLimit": 1295, "upperLimit_uom": "FT", "upperLimitReference": "MSL", "lowerLimit": 0, "lowerLimit_uom": "FT", "lowerLimitReference": "SFC", "channel": null }, "geometry": { "type": "Point", "coordinates": [ 0.6725, 52.778888888888886 ] } },
{ "type": "Feature", "properties": { "identifier": "10512f4b-a6a7-505c-9fb6-a3a995cc3fc7", "name": "GREAT OAKLEY", "stype": "TRAINING", "upperLimit": 1060, "upperLimit_uom": "FT", "upperLimitReference": "MSL", "lowerLimit": 0, "lowerLimit_uom": "FT", "lowerLimitReference": "SFC", "channel": null }, "geometry": { "type": "Point", "coordinates": [ 1.171666666666667, 51.9 ] } },
{ "type": "Feature", "properties": { "identifier": "d348274d-dc93-5434-a623-c106abbf1795", "name": "GROVE FARM", "stype": "MICROLIGHT", "upperLimit": 1102, "upperLimit_uom": "FT", "upperLimitReference": "MSL", "lowerLimit": 0, "lowerLimit_uom": "FT", "lowerLimitReference": "SFC", "channel": null }, "geometry": { "type": "Point", "coordinates": [ 1.539444444444444, 52.49722222222222 ] } },
{ "type": "Feature", "properties": { "identifier": "626d08b7-d8b7-5dba-a65d-85578d69ca70", "name": "HALESLAND", "stype": "GLIDER", "upperLimit": 2870, "upperLimit_uom": "FT", "upperLimitReference": "MSL", "lowerLimit": 0, "lowerLimit_uom": "FT", "lowerLimitReference": "SFC", "channel": "129.060" }, "geometry": { "type": "Point", "coordinates": [ -2.732222222222223, 51.262222222222221 ] } },
{ "type": "Feature", "properties": { "identifier": "9a7319a5-1eeb-5862-8f49-c8bda3672b76", "name": "HALTON", "stype": "GLIDER", "upperLimit": 2370, "upperLimit_uom": "FT", "upperLimitReference": "MSL", "lowerLimit": 0, "lowerLimit_uom": "FT", "lowerLimitReference": "SFC", "channel": "130.430" }, "geometry": { "type": "Point", "coordinates": [ -0.737777777777778, 51.7925 ] } },
{ "type": "Feature", "properties": { "identifier": "73ea56eb-1256-56bb-bd6c-276d73ae0333", "name": "HALWELL", "stype": "MICROLIGHT", "upperLimit": 1623, "upperLimit_uom": "FT", "upperLimitReference": "MSL", "lowerLimit": 0, "lowerLimit_uom": "FT", "lowerLimitReference": "SFC", "channel": null }, "geometry": { "type": "Point", "coordinates": [ -3.709722222222223, 50.365277777777777 ] } },
{ "type": "Feature", "properties": { "identifier": "43f3dd86-de6b-56bf-99b4-f5db41b5ed59", "name": "HARRINGE COURT FARM", "stype": "MICROLIGHT", "upperLimit": 1279, "upperLimit_uom": "FT", "upperLimitReference": "MSL", "lowerLimit": 0, "lowerLimit_uom": "FT", "lowerLimitReference": "SFC", "channel": null }, "geometry": { "type": "Point", "coordinates": [ 0.988333333333333, 51.091944444444444 ] } },
{ "type": "Feature", "properties": { "identifier": "a1bce000-0f2f-589f-8733-58ddd97aac55", "name": "HAWKSVIEW", "stype": "MICROLIGHT", "upperLimit": 1220, "upperLimit_uom": "FT", "upperLimitReference": "MSL", "lowerLimit": 0, "lowerLimit_uom": "FT", "lowerLimitReference": "SFC", "channel": null }, "geometry": { "type": "Point", "coordinates": [ -2.525833333333333, 53.342222222222226 ] } },
{ "type": "Feature", "properties": { "identifier": "f9715328-02c5-51a5-af26-cad9ed8c2a63", "name": "HENSTRIDGE", "stype": "TRAINING", "upperLimit": 1184, "upperLimit_uom": "FT", "upperLimitReference": "MSL", "lowerLimit": 0, "lowerLimit_uom": "FT", "lowerLimitReference": "SFC", "channel": null }, "geometry": { "type": "Point", "coordinates": [ -2.358333333333333, 50.991666666666667 ] } },
{ "type": "Feature", "properties": { "identifier": "b9846515-cefb-5442-88b5-700ae7520283", "name": "HIGH TREES FARM", "stype": "MICROLIGHT", "upperLimit": 1420, "upperLimit_uom": "FT", "upperLimitReference": "MSL", "lowerLimit": 0, "lowerLimit_uom": "FT", "lowerLimitReference": "SFC", "channel": null }, "geometry": { "type": "Point", "coordinates": [ -1.880277777777778, 52.854166666666671 ] } },
{ "type": "Feature", "properties": { "identifier": "62df4181-3886-5dac-90e4-21b5556da6c8", "name": "HILL TOP FARM", "stype": "MICROLIGHT", "upperLimit": 1110, "upperLimit_uom": "FT", "upperLimitReference": "MSL", "lowerLimit": 0, "lowerLimit_uom": "FT", "lowerLimitReference": "SFC", "channel": null }, "geometry": { "type": "Point", "coordinates": [ -0.423333333333333, 53.091666666666669 ] } },
{ "type": "Feature", "properties": { "identifier": "8a7f497b-b836-5394-96e3-691bb742e6c2", "name": "HINTON-IN-THE-HEDGES", "stype": "GLIDER", "upperLimit": 2500, "upperLimit_uom": "FT", "upperLimitReference": "MSL", "lowerLimit": 0, "lowerLimit_uom": "FT", "lowerLimitReference": "SFC", "channel": null }, "geometry": { "type": "Point", "coordinates": [ -1.208055555555555, 52.029166666666669 ] } },
{ "type": "Feature", "properties": { "identifier": "b6fc15e6-4a8f-5191-a299-50121697e6f8", "name": "HOGHTON", "stype": "MICROLIGHT", "upperLimit": 1207, "upperLimit_uom": "FT", "upperLimitReference": "MSL", "lowerLimit": 0, "lowerLimit_uom": "FT", "lowerLimitReference": "SFC", "channel": null }, "geometry": { "type": "Point", "coordinates": [ -2.605833333333333, 53.74527777777778 ] } },
{ "type": "Feature", "properties": { "identifier": "e6b753a0-63fe-57d5-bbdd-b96eac985b07", "name": "HONINGTON", "stype": "GLIDER", "upperLimit": 2174, "upperLimit_uom": "FT", "upperLimitReference": "MSL", "lowerLimit": 0, "lowerLimit_uom": "FT", "lowerLimitReference": "SFC", "channel": "124.105" }, "geometry": { "type": "Point", "coordinates": [ 0.78, 52.343333333333334 ] } },
{ "type": "Feature", "properties": { "identifier": "94bb02b0-8622-549b-a542-5536a782afb2", "name": "HOUGHAM", "stype": "MICROLIGHT", "upperLimit": 1080, "upperLimit_uom": "FT", "upperLimitReference": "MSL", "lowerLimit": 0, "lowerLimit_uom": "FT", "lowerLimitReference": "SFC", "channel": null }, "geometry": { "type": "Point", "coordinates": [ -0.687222222222222, 53.00611111111111 ] } },
{ "type": "Feature", "properties": { "identifier": "4e9bc27e-3049-5811-a9e9-e2ccd0bfd94d", "name": "HUNSDON", "stype": "MICROLIGHT", "upperLimit": 1254, "upperLimit_uom": "FT", "upperLimitReference": "MSL", "lowerLimit": 0, "lowerLimit_uom": "FT", "lowerLimitReference": "SFC", "channel": null }, "geometry": { "type": "Point", "coordinates": [ 0.071111111111111, 51.80694444444444 ] } },
{ "type": "Feature", "properties": { "identifier": "40fac0e9-d1d2-58d4-a0e5-836a9268b524", "name": "HUSBANDS BOSWORTH", "stype": "GLIDER", "upperLimit": 3505, "upperLimit_uom": "FT", "upperLimitReference": "MSL", "lowerLimit": 0, "lowerLimit_uom": "FT", "lowerLimitReference": "SFC", "channel": null }, "geometry": { "type": "Point", "coordinates": [ -1.043888888888889, 52.440555555555555 ] } },
{ "type": "Feature", "properties": { "identifier": "bbd9c352-d5ca-5d61-a1bd-d0235530d748", "name": "HUSTHWAITE", "stype": "MICROLIGHT", "upperLimit": 1132, "upperLimit_uom": "FT", "upperLimitReference": "MSL", "lowerLimit": 0, "lowerLimit_uom": "FT", "lowerLimitReference": "SFC", "channel": null }, "geometry": { "type": "Point", "coordinates": [ -1.231666666666667, 54.156944444444441 ] } },
{ "type": "Feature", "properties": { "identifier": "cd779f1e-aee6-5d62-a9d1-e593a02131f1", "name": "INCE", "stype": "MICROLIGHT", "upperLimit": 1010, "upperLimit_uom": "FT", "upperLimitReference": "MSL", "lowerLimit": 0, "lowerLimit_uom": "FT", "lowerLimitReference": "SFC", "channel": null }, "geometry": { "type": "Point", "coordinates": [ -3.0275, 53.532777777777774 ] } },
{ "type": "Feature", "properties": { "identifier": "b4767749-0309-55a7-98b1-c3b33af99610", "name": "KEEVIL", "stype": "GLIDER", "upperLimit": 3200, "upperLimit_uom": "FT", "upperLimitReference": "MSL", "lowerLimit": 0, "lowerLimit_uom": "FT", "lowerLimitReference": "SFC", "channel": "130.290" }, "geometry": { "type": "Point", "coordinates": [ -2.111944444444445, 51.313888888888883 ] } },
{ "type": "Feature", "properties": { "identifier": "f1d4fa14-6e7a-5428-bc63-d9ba2f8d8044", "name": "KENLEY", "stype": "GLIDER", "upperLimit": 2265, "upperLimit_uom": "FT", "upperLimitReference": "MSL", "lowerLimit": 0, "lowerLimit_uom": "FT", "lowerLimitReference": "SFC", "channel": "119.760" }, "geometry": { "type": "Point", "coordinates": [ -0.093333333333333, 51.305833333333332 ] } },
{ "type": "Feature", "properties": { "identifier": "4909993c-4ff6-50a2-aabf-ba21921eb593", "name": "KERNAN", "stype": "MICROLIGHT", "upperLimit": 1065, "upperLimit_uom": "FT", "upperLimitReference": "MSL", "lowerLimit": 0, "lowerLimit_uom": "FT", "lowerLimitReference": "SFC", "channel": null }, "geometry": { "type": "Point", "coordinates": [ -6.399722222222223, 54.386388888888888 ] } },
{ "type": "Feature", "properties": { "identifier": "b6f0ce7d-67be-5995-8022-9026f8aaf217", "name": "KINGS FARM", "stype": "MICROLIGHT", "upperLimit": 1210, "upperLimit_uom": "FT", "upperLimitReference": "MSL", "lowerLimit": 0, "lowerLimit_uom": "FT", "lowerLimitReference": "SFC", "channel": null }, "geometry": { "type": "Point", "coordinates": [ -0.603055555555556, 52.617222222222225 ] } },
{ "type": "Feature", "properties": { "identifier": "ce1c08a2-7a9c-55a6-9d24-37f412bc1032", "name": "KIRKBRIDE", "stype": "MICROLIGHT", "upperLimit": 1038, "upperLimit_uom": "FT", "upperLimitReference": "MSL", "lowerLimit": 0, "lowerLimit_uom": "FT", "lowerLimitReference": "SFC", "channel": null }, "geometry": { "type": "Point", "coordinates": [ -3.205555555555556, 54.882222222222225 ] } },
{ "type": "Feature", "properties": { "identifier": "5029a59b-0add-53c1-af1a-560904143f23", "name": "KIRKNEWTON", "stype": "GLIDER", "upperLimit": 3652, "upperLimit_uom": "FT", "upperLimitReference": "MSL", "lowerLimit": 0, "lowerLimit_uom": "FT", "lowerLimitReference": "SFC", "channel": null }, "geometry": { "type": "Point", "coordinates": [ -3.4, 55.876111111111115 ] } },
{ "type": "Feature", "properties": { "identifier": "0921888b-f9c2-501c-8606-2d87bf44c312", "name": "LASHAM", "stype": "GLIDER", "upperLimit": 3618, "upperLimit_uom": "FT", "upperLimitReference": "MSL", "lowerLimit": 0, "lowerLimit_uom": "FT", "lowerLimitReference": "SFC", "channel": null }, "geometry": { "type": "Point", "coordinates": [ -1.031944444444444, 51.18666666666666 ] } },
{ "type": "Feature", "properties": { "identifier": "72a1c7ee-4e2c-528b-9b43-c7cccf378055", "name": "LINTON", "stype": "MICROLIGHT", "upperLimit": 1070, "upperLimit_uom": "FT", "upperLimitReference": "MSL", "lowerLimit": 0, "lowerLimit_uom": "FT", "lowerLimitReference": "SFC", "channel": null }, "geometry": { "type": "Point", "coordinates": [ 0.511666666666667, 51.204722222222223 ] } },
{ "type": "Feature", "properties": { "identifier": "16863e54-114c-594a-a271-6ce5c430f509", "name": "LITTLE RISSINGTON", "stype": "GLIDER", "upperLimit": 2722, "upperLimit_uom": "FT", "upperLimitReference": "MSL", "lowerLimit": 0, "lowerLimit_uom": "FT", "lowerLimitReference": "SFC", "channel": "120.780" }, "geometry": { "type": "Point", "coordinates": [ -1.694166666666667, 51.867222222222225 ] } },
{ "type": "Feature", "properties": { "identifier": "8506ead8-f4d3-52e0-b997-96f3ff2b0b22", "name": "LLANBEDR", "stype": "TRAINING", "upperLimit": 1030, "upperLimit_uom": "FT", "upperLimitReference": "MSL", "lowerLimit": 0, "lowerLimit_uom": "FT", "lowerLimitReference": "SFC", "channel": null }, "geometry": { "type": "Point", "coordinates": [ -4.127222222222222, 52.804722222222217 ] } },
{ "type": "Feature", "properties": { "identifier": "296a8be9-e367-51c1-a03a-8b96d2f97388", "name": "LLANTISILIO", "stype": "GLIDER", "upperLimit": 3120, "upperLimit_uom": "FT", "upperLimitReference": "MSL", "lowerLimit": 0, "lowerLimit_uom": "FT", "lowerLimitReference": "SFC", "channel": "133.565" }, "geometry": { "type": "Point", "coordinates": [ -3.220833333333334, 53.044166666666662 ] } },
{ "type": "Feature", "properties": { "identifier": "f5e52569-b1be-572a-a8c2-800dac298f69", "name": "LLEWENI PARC", "stype": "GLIDER", "upperLimit": 3200, "upperLimit_uom": "FT", "upperLimitReference": "MSL", "lowerLimit": 0, "lowerLimit_uom": "FT", "lowerLimitReference": "SFC", "channel": "129.060" }, "geometry": { "type": "Point", "coordinates": [ -3.386666666666667, 53.210833333333333 ] } },
{ "type": "Feature", "properties": { "identifier": "a9427b89-12f5-5f41-8aad-2a7a6fc38eb6", "name": "LONDON COLNEY", "stype": "MICROLIGHT", "upperLimit": 1295, "upperLimit_uom": "FT", "upperLimitReference": "MSL", "lowerLimit": 0, "lowerLimit_uom": "FT", "lowerLimitReference": "SFC", "channel": null }, "geometry": { "type": "Point", "coordinates": [ -0.274722222222222, 51.705555555555556 ] } },
{ "type": "Feature", "properties": { "identifier": "cbd722cf-64e8-583b-b341-4762b72a5de9", "name": "LONG MYND", "stype": "GLIDER", "upperLimit": 4411, "upperLimit_uom": "FT", "upperLimitReference": "MSL", "lowerLimit": 0, "lowerLimit_uom": "FT", "lowerLimitReference": "SFC", "channel": "123.815" }, "geometry": { "type": "Point", "coordinates": [ -2.875833333333333, 52.518888888888888 ] } },
{ "type": "Feature", "properties": { "identifier": "68de39fa-7d3c-546d-8f8e-cb37b4067d4e", "name": "LONG SUTTON", "stype": "MICROLIGHT", "upperLimit": 1010, "upperLimit_uom": "FT", "upperLimitReference": "MSL", "lowerLimit": 0, "lowerLimit_uom": "FT", "lowerLimitReference": "SFC", "channel": null }, "geometry": { "type": "Point", "coordinates": [ 0.093333333333333, 52.778333333333329 ] } },
{ "type": "Feature", "properties": { "identifier": "552fc3fe-d2d5-525d-855c-bc927103429c", "name": "LONGSIDE", "stype": "TRAINING", "upperLimit": 1120, "upperLimit_uom": "FT", "upperLimitReference": "MSL", "lowerLimit": 0, "lowerLimit_uom": "FT", "lowerLimitReference": "SFC", "channel": null }, "geometry": { "type": "Point", "coordinates": [ -1.875, 57.515555555555558 ] } },
{ "type": "Feature", "properties": { "identifier": "e49bca9f-d584-5d5e-ac28-56da22289f28", "name": "LYVEDEN", "stype": "GLIDER", "upperLimit": 2279, "upperLimit_uom": "FT", "upperLimitReference": "MSL", "lowerLimit": 0, "lowerLimit_uom": "FT", "lowerLimitReference": "SFC", "channel": null }, "geometry": { "type": "Point", "coordinates": [ -0.575, 52.466111111111111 ] } },
{ "type": "Feature", "properties": { "identifier": "a4912c96-9cc5-5666-9e00-47e0921a239b", "name": "MANTON", "stype": "MICROLIGHT", "upperLimit": 1610, "upperLimit_uom": "FT", "upperLimitReference": "MSL", "lowerLimit": 0, "lowerLimit_uom": "FT", "lowerLimitReference": "SFC", "channel": null }, "geometry": { "type": "Point", "coordinates": [ -1.774166666666667, 51.42861111111111 ] } },
{ "type": "Feature", "properties": { "identifier": "8b395416-f386-58b3-a025-7fd26ed3622d", "name": "MEMBURY", "stype": "TRAINING", "upperLimit": 1667, "upperLimit_uom": "FT", "upperLimitReference": "MSL", "lowerLimit": 0, "lowerLimit_uom": "FT", "lowerLimitReference": "SFC", "channel": null }, "geometry": { "type": "Point", "coordinates": [ -1.558333333333333, 51.475 ] } },
{ "type": "Feature", "properties": { "identifier": "13e894ee-29bf-50e5-8c5a-c8b30e5db9fe", "name": "MIDDLE WALLOP", "stype": "GLIDER", "upperLimit": 2297, "upperLimit_uom": "FT", "upperLimitReference": "MSL", "lowerLimit": 0, "lowerLimit_uom": "FT", "lowerLimitReference": "SFC", "channel": null }, "geometry": { "type": "Point", "coordinates": [ -1.570277777777778, 51.149444444444441 ] } },
{ "type": "Feature", "properties": { "identifier": "6d38f4d4-6f8c-5fa7-817a-ab2d93578681", "name": "MIDDLETON SANDS", "stype": "MICROLIGHT", "upperLimit": 1017, "upperLimit_uom": "FT", "upperLimitReference": "MSL", "lowerLimit": 0, "lowerLimit_uom": "FT", "lowerLimitReference": "SFC", "channel": null }, "geometry": { "type": "Point", "coordinates": [ -2.896111111111111, 53.997777777777777 ] } },
{ "type": "Feature", "properties": { "identifier": "8ae175da-5c48-546d-825a-8b8cb12809e9", "name": "MILFIELD", "stype": "GLIDER", "upperLimit": 2150, "upperLimit_uom": "FT", "upperLimitReference": "MSL", "lowerLimit": 0, "lowerLimit_uom": "FT", "lowerLimitReference": "SFC", "channel": "124.965" }, "geometry": { "type": "Point", "coordinates": [ -2.086111111111111, 55.587222222222223 ] } },
{ "type": "Feature", "properties": { "identifier": "80632440-c47e-5652-8ed9-ece0193d2ef8", "name": "MILSON", "stype": "MICROLIGHT", "upperLimit": 1500, "upperLimit_uom": "FT", "upperLimitReference": "MSL", "lowerLimit": 0, "lowerLimit_uom": "FT", "lowerLimitReference": "SFC", "channel": null }, "geometry": { "type": "Point", "coordinates": [ -2.545833333333333, 52.361388888888889 ] } },
{ "type": "Feature", "properties": { "identifier": "c130db74-c26b-5d13-a972-7f0ef847beb3", "name": "MONTROSE", "stype": "MICROLIGHT", "upperLimit": 1025, "upperLimit_uom": "FT", "upperLimitReference": "MSL", "lowerLimit": 0, "lowerLimit_uom": "FT", "lowerLimitReference": "SFC", "channel": null }, "geometry": { "type": "Point", "coordinates": [ -2.451111111111111, 56.730833333333337 ] } },
{ "type": "Feature", "properties": { "identifier": "d47a404a-69a1-53af-add5-71f549881eff", "name": "MOVENIS", "stype": "MICROLIGHT", "upperLimit": 1180, "upperLimit_uom": "FT", "upperLimitReference": "MSL", "lowerLimit": 0, "lowerLimit_uom": "FT", "lowerLimitReference": "SFC", "channel": null }, "geometry": { "type": "Point", "coordinates": [ -6.648055555555555, 54.9875 ] } },
{ "type": "Feature", "properties": { "identifier": "685ee564-8c2b-5fa6-ac1a-85be74c86a07", "name": "NEWTON PEVERIL", "stype": "MICROLIGHT", "upperLimit": 1009, "upperLimit_uom": "FT", "upperLimitReference": "MSL", "lowerLimit": 0, "lowerLimit_uom": "FT", "lowerLimitReference": "SFC", "channel": null }, "geometry": { "type": "Point", "coordinates": [ -2.100833333333334, 50.793888888888887 ] } },
{ "type": "Feature", "properties": { "identifier": "c77c0d28-e13a-553a-ab9b-d3669f927a3f", "name": "NORTH HILL", "stype": "GLIDER", "upperLimit": 3921, "upperLimit_uom": "FT", "upperLimitReference": "MSL", "lowerLimit": 0, "lowerLimit_uom": "FT", "lowerLimitReference": "SFC", "channel": null }, "geometry": { "type": "Point", "coordinates": [ -3.2775, 50.851944444444449 ] } },
{ "type": "Feature", "properties": { "identifier": "c49a28bd-e6ab-5853-9ee7-00ff489db248", "name": "NORTHIAM", "stype": "MICROLIGHT", "upperLimit": 1060, "upperLimit_uom": "FT", "upperLimitReference": "MSL", "lowerLimit": 0, "lowerLimit_uom": "FT", "lowerLimitReference": "SFC", "channel": null }, "geometry": { "type": "Point", "coordinates": [ 0.621666666666667, 51.004444444444445 ] } },
{ "type": "Feature", "properties": { "identifier": "1e23cf81-1af4-5a5a-a2a7-f39ec9a5e3ef", "name": "NYMPSFIELD", "stype": "GLIDER", "upperLimit": 3700, "upperLimit_uom": "FT", "upperLimitReference": "MSL", "lowerLimit": 0, "lowerLimit_uom": "FT", "lowerLimitReference": "SFC", "channel": "129.980" }, "geometry": { "type": "Point", "coordinates": [ -2.283611111111111, 51.714166666666671 ] } },
{ "type": "Feature", "properties": { "identifier": "f8c36531-1dcb-504e-832d-2426fb32cd83", "name": "OAKSEY PARK", "stype": "TRAINING", "upperLimit": 1250, "upperLimit_uom": "FT", "upperLimitReference": "MSL", "lowerLimit": 0, "lowerLimit_uom": "FT", "lowerLimitReference": "SFC", "channel": null }, "geometry": { "type": "Point", "coordinates": [ -2.015277777777778, 51.6325 ] } },
{ "type": "Feature", "properties": { "identifier": "dbbb562e-3243-5f4f-a5ad-6de3bd693c0b", "name": "ODIHAM", "stype": "GLIDER", "upperLimit": 2905, "upperLimit_uom": "FT", "upperLimitReference": "MSL", "lowerLimit": 0, "lowerLimit_uom": "FT", "lowerLimitReference": "SFC", "channel": "119.230" }, "geometry": { "type": "Point", "coordinates": [ -0.949166666666667, 51.234722222222224 ] } },
{ "type": "Feature", "properties": { "identifier": "91ffc9a7-1675-55a0-a7cc-305a855e6845", "name": "OTHERTON", "stype": "MICROLIGHT", "upperLimit": 1340, "upperLimit_uom": "FT", "upperLimitReference": "MSL", "lowerLimit": 0, "lowerLimit_uom": "FT", "lowerLimitReference": "SFC", "channel": null }, "geometry": { "type": "Point", "coordinates": [ -2.094722222222222, 52.708611111111111 ] } },
{ "type": "Feature", "properties": { "identifier": "0e18dac7-cba0-5919-8de1-17ab640915cc", "name": "OVER FARM", "stype": "MICROLIGHT", "upperLimit": 1047, "upperLimit_uom": "FT", "upperLimitReference": "MSL", "lowerLimit": 0, "lowerLimit_uom": "FT", "lowerLimitReference": "SFC", "channel": null }, "geometry": { "type": "Point", "coordinates": [ -2.2825, 51.8775 ] } },
{ "type": "Feature", "properties": { "identifier": "4782f31c-6155-5639-beab-09070466a1eb", "name": "OXTON", "stype": "MICROLIGHT", "upperLimit": 1273, "upperLimit_uom": "FT", "upperLimitReference": "MSL", "lowerLimit": 0, "lowerLimit_uom": "FT", "lowerLimitReference": "SFC", "channel": null }, "geometry": { "type": "Point", "coordinates": [ -1.001666666666667, 53.044722222222219 ] } },
{ "type": "Feature", "properties": { "identifier": "849ef49b-6be8-59cf-923e-4e9a397b0800", "name": "PACKINGTON", "stype": "MICROLIGHT", "upperLimit": 1320, "upperLimit_uom": "FT", "upperLimitReference": "MSL", "lowerLimit": 0, "lowerLimit_uom": "FT", "lowerLimitReference": "SFC", "channel": null }, "geometry": { "type": "Point", "coordinates": [ -1.471388888888889, 52.716111111111111 ] } },
{ "type": "Feature", "properties": { "identifier": "b9cd49b6-4032-5006-b5ca-a83097c37653", "name": "PARHAM", "stype": "GLIDER", "upperLimit": 2110, "upperLimit_uom": "FT", "upperLimitReference": "MSL", "lowerLimit": 0, "lowerLimit_uom": "FT", "lowerLimitReference": "SFC", "channel": "124.965" }, "geometry": { "type": "Point", "coordinates": [ -0.474444444444444, 50.925555555555555 ] } },
{ "type": "Feature", "properties": { "identifier": "ee0a5db8-7e94-5e37-acfa-0c05d7ffa9a5", "name": "PARK HALL", "stype": "MICROLIGHT", "upperLimit": 1377, "upperLimit_uom": "FT", "upperLimitReference": "MSL", "lowerLimit": 0, "lowerLimit_uom": "FT", "lowerLimitReference": "SFC", "channel": null }, "geometry": { "type": "Point", "coordinates": [ -1.370833333333333, 52.983055555555559 ] } },
{ "type": "Feature", "properties": { "identifier": "1ee5c3c9-b604-511e-9825-0572b5c887cd", "name": "PERRANPORTH", "stype": "GLIDER", "upperLimit": 2330, "upperLimit_uom": "FT", "upperLimitReference": "MSL", "lowerLimit": 0, "lowerLimit_uom": "FT", "lowerLimitReference": "SFC", "channel": "119.755" }, "geometry": { "type": "Point", "coordinates": [ -5.1775, 50.329722222222223 ] } },
{ "type": "Feature", "properties": { "identifier": "8d50fb2e-230a-5db7-beca-d2a76098f45c", "name": "PILLING SANDS", "stype": "MICROLIGHT", "upperLimit": 1017, "upperLimit_uom": "FT", "upperLimitReference": "MSL", "lowerLimit": 0, "lowerLimit_uom": "FT", "lowerLimitReference": "SFC", "channel": null }, "geometry": { "type": "Point", "coordinates": [ -2.935555555555556, 53.941944444444438 ] } },
{ "type": "Feature", "properties": { "identifier": "6971f273-1120-5b1c-83ce-cfbf1d5d2f99", "name": "PLAISTOWS", "stype": "MICROLIGHT", "upperLimit": 1395, "upperLimit_uom": "FT", "upperLimitReference": "MSL", "lowerLimit": 0, "lowerLimit_uom": "FT", "lowerLimitReference": "SFC", "channel": null }, "geometry": { "type": "Point", "coordinates": [ -0.379722222222222, 51.728055555555557 ] } },
{ "type": "Feature", "properties": { "identifier": "1021dbab-7fa8-5f5c-8258-2049d1b42eee", "name": "POCKLINGTON", "stype": "GLIDER", "upperLimit": 2087, "upperLimit_uom": "FT", "upperLimitReference": "MSL", "lowerLimit": 0, "lowerLimit_uom": "FT", "lowerLimitReference": "SFC", "channel": "122.915" }, "geometry": { "type": "Point", "coordinates": [ -0.7975, 53.928055555555552 ] } },
{ "type": "Feature", "properties": { "identifier": "755411e7-dd39-5a04-bdfb-ff37244abea1", "name": "POPHAM", "stype": "TRAINING", "upperLimit": 1550, "upperLimit_uom": "FT", "upperLimitReference": "MSL", "lowerLimit": 0, "lowerLimit_uom": "FT", "lowerLimitReference": "SFC", "channel": null }, "geometry": { "type": "Point", "coordinates": [ -1.236111111111111, 51.194444444444443 ] } },
{ "type": "Feature", "properties": { "identifier": "785802bd-f273-53e7-98b9-8c335192d84b", "name": "PORTMOAK", "stype": "GLIDER", "upperLimit": 2360, "upperLimit_uom": "FT", "upperLimitReference": "MSL", "lowerLimit": 0, "lowerLimit_uom": "FT", "lowerLimitReference": "SFC", "channel": "122.915" }, "geometry": { "type": "Point", "coordinates": [ -3.329166666666667, 56.189166666666665 ] } },
{ "type": "Feature", "properties": { "identifier": "67cac6f0-7f4c-58f5-9d93-8d84cc9c95a2", "name": "POUND GREEN", "stype": "MICROLIGHT", "upperLimit": 1360, "upperLimit_uom": "FT", "upperLimitReference": "MSL", "lowerLimit": 0, "lowerLimit_uom": "FT", "lowerLimitReference": "SFC", "channel": null }, "geometry": { "type": "Point", "coordinates": [ -2.354166666666667, 52.403888888888886 ] } },
{ "type": "Feature", "properties": { "identifier": "23f8394c-89bd-5b14-b55d-3b19b1440ea6", "name": "PREDANNACK", "stype": "GLIDER", "upperLimit": 3299, "upperLimit_uom": "FT", "upperLimitReference": "MSL", "lowerLimit": 0, "lowerLimit_uom": "FT", "lowerLimitReference": "SFC", "channel": "134.055" }, "geometry": { "type": "Point", "coordinates": [ -5.230833333333334, 50.001944444444447 ] } },
{ "type": "Feature", "properties": { "identifier": "355a1545-12c1-5439-b12d-aea59b24a6fe", "name": "RATTLESDEN", "stype": "GLIDER", "upperLimit": 2305, "upperLimit_uom": "FT", "upperLimitReference": "MSL", "lowerLimit": 0, "lowerLimit_uom": "FT", "lowerLimitReference": "SFC", "channel": "130.290" }, "geometry": { "type": "Point", "coordinates": [ 0.871111111111111, 52.166944444444439 ] } },
{ "type": "Feature", "properties": { "identifier": "acb74d12-e568-50ab-89b6-462e703335ab", "name": "RECTORY FARM", "stype": "MICROLIGHT", "upperLimit": 1040, "upperLimit_uom": "FT", "upperLimitReference": "MSL", "lowerLimit": 0, "lowerLimit_uom": "FT", "lowerLimitReference": "SFC", "channel": null }, "geometry": { "type": "Point", "coordinates": [ -0.848611111111111, 53.086111111111116 ] } },
{ "type": "Feature", "properties": { "identifier": "cf9f6a59-d442-56da-844a-de1e0ccf51d7", "name": "RIDGEWELL", "stype": "GLIDER", "upperLimit": 2273, "upperLimit_uom": "FT", "upperLimitReference": "MSL", "lowerLimit": 0, "lowerLimit_uom": "FT", "lowerLimitReference": "SFC", "channel": "132.910" }, "geometry": { "type": "Point", "coordinates": [ 0.558333333333333, 52.048055555555557 ] } },
{ "type": "Feature", "properties": { "identifier": "cb9fbd9a-ddcd-5bdf-a531-dcde0a2e1865", "name": "RINGMER", "stype": "GLIDER", "upperLimit": 2572, "upperLimit_uom": "FT", "upperLimitReference": "MSL", "lowerLimit": 0, "lowerLimit_uom": "FT", "lowerLimitReference": "SFC", "channel": "129.965" }, "geometry": { "type": "Point", "coordinates": [ 0.105, 50.906388888888884 ] } },
{ "type": "Feature", "properties": { "identifier": "f9e8e801-b37e-5d3f-8e84-b391a1ec405c", "name": "RIVAR HILL", "stype": "GLIDER", "upperLimit": 3730, "upperLimit_uom": "FT", "upperLimitReference": "MSL", "lowerLimit": 0, "lowerLimit_uom": "FT", "lowerLimitReference": "SFC", "channel": null }, "geometry": { "type": "Point", "coordinates": [ -1.543055555555555, 51.343888888888891 ] } },
{ "type": "Feature", "properties": { "identifier": "79a28fa5-c297-533f-acd0-99190cf360a8", "name": "ROGART", "stype": "MICROLIGHT", "upperLimit": 1033, "upperLimit_uom": "FT", "upperLimitReference": "MSL", "lowerLimit": 0, "lowerLimit_uom": "FT", "lowerLimitReference": "SFC", "channel": null }, "geometry": { "type": "Point", "coordinates": [ -4.171944444444445, 57.990555555555559 ] } },
{ "type": "Feature", "properties": { "identifier": "f6215df3-d3c5-51e0-ab8e-520289952431", "name": "ROSSALL FIELD", "stype": "MICROLIGHT", "upperLimit": 1015, "upperLimit_uom": "FT", "upperLimitReference": "MSL", "lowerLimit": 0, "lowerLimit_uom": "FT", "lowerLimitReference": "SFC", "channel": null }, "geometry": { "type": "Point", "coordinates": [ -2.843888888888889, 53.934166666666663 ] } },
{ "type": "Feature", "properties": { "identifier": "2381179d-5dfc-55d2-aa86-48ca61338ec4", "name": "SACKVILLE LODGE", "stype": "GLIDER", "upperLimit": 2250, "upperLimit_uom": "FT", "upperLimitReference": "MSL", "lowerLimit": 0, "lowerLimit_uom": "FT", "lowerLimitReference": "SFC", "channel": null }, "geometry": { "type": "Point", "coordinates": [ -0.484722222222222, 52.264166666666668 ] } },
{ "type": "Feature", "properties": { "identifier": "6c9bf7f8-4b34-5b5e-a73a-0e4baaf0889d", "name": "SALTBY", "stype": "GLIDER", "upperLimit": 3480, "upperLimit_uom": "FT", "upperLimitReference": "MSL", "lowerLimit": 0, "lowerLimit_uom": "FT", "lowerLimitReference": "SFC", "channel": "129.965" }, "geometry": { "type": "Point", "coordinates": [ -0.7125, 52.829722222222223 ] } },
{ "type": "Feature", "properties": { "identifier": "c7bb42dc-97e2-5ebe-82e8-38bf97ff1066", "name": "SANDHILL FARM", "stype": "GLIDER", "upperLimit": 2350, "upperLimit_uom": "FT", "upperLimitReference": "MSL", "lowerLimit": 0, "lowerLimit_uom": "FT", "lowerLimitReference": "SFC", "channel": "129.980" }, "geometry": { "type": "Point", "coordinates": [ -1.675, 51.603888888888889 ] } },
{ "type": "Feature", "properties": { "identifier": "4d4d2257-3375-5d1a-a77a-fe867c8ebac8", "name": "SANDOWN / ISLE OF WIGHT", "stype": "TRAINING", "upperLimit": 1055, "upperLimit_uom": "FT", "upperLimitReference": "MSL", "lowerLimit": 0, "lowerLimit_uom": "FT", "lowerLimitReference": "SFC", "channel": null }, "geometry": { "type": "Point", "coordinates": [ -1.181944444444444, 50.652777777777779 ] } },
{ "type": "Feature", "properties": { "identifier": "7a5c6ecc-2de2-584e-b2ef-f198f7e26b61", "name": "SANDY", "stype": "MICROLIGHT", "upperLimit": 1080, "upperLimit_uom": "FT", "upperLimitReference": "MSL", "lowerLimit": 0, "lowerLimit_uom": "FT", "lowerLimitReference": "SFC", "channel": null }, "geometry": { "type": "Point", "coordinates": [ -0.309722222222222, 52.128888888888888 ] } },
{ "type": "Feature", "properties": { "identifier": "1a690532-4c32-5781-8c36-47bd7b3332de", "name": "SEETHING", "stype": "TRAINING", "upperLimit": 1130, "upperLimit_uom": "FT", "upperLimitReference": "MSL", "lowerLimit": 0, "lowerLimit_uom": "FT", "lowerLimitReference": "SFC", "channel": null }, "geometry": { "type": "Point", "coordinates": [ 1.416944444444445, 52.511111111111113 ] } },
{ "type": "Feature", "properties": { "identifier": "760a48e4-7937-5839-9be3-6f4d4c429f96", "name": "SEIGHFORD", "stype": "GLIDER", "upperLimit": 2321, "upperLimit_uom": "FT", "upperLimitReference": "MSL", "lowerLimit": 0, "lowerLimit_uom": "FT", "lowerLimitReference": "SFC", "channel": "132.910" }, "geometry": { "type": "Point", "coordinates": [ -2.203333333333334, 52.827777777777783 ] } },
{ "type": "Feature", "properties": { "identifier": "ebd93ad8-cbfe-5dfe-8e13-9c66d204acc0", "name": "SHACKLEWELL LODGE / EMPINGHAM ", "stype": "TRAINING", "upperLimit": 1300, "upperLimit_uom": "FT", "upperLimitReference": "MSL", "lowerLimit": 0, "lowerLimit_uom": "FT", "lowerLimitReference": "SFC", "channel": null }, "geometry": { "type": "Point", "coordinates": [ -0.566666666666667, 52.65 ] } },
{ "type": "Feature", "properties": { "identifier": "b215ad8c-d0a5-5edf-a09c-25177b7ec636", "name": "SHAWBURY", "stype": "GLIDER", "upperLimit": 1248, "upperLimit_uom": "FT", "upperLimitReference": "MSL", "lowerLimit": 0, "lowerLimit_uom": "FT", "lowerLimitReference": "SFC", "channel": "133.155" }, "geometry": { "type": "Point", "coordinates": [ -2.667777777777778, 52.793611111111112 ] } },
{ "type": "Feature", "properties": { "identifier": "6e397f9e-70a4-519d-9deb-06213dc3b915", "name": "SHOBDON", "stype": "GLIDER", "upperLimit": 1328, "upperLimit_uom": "FT", "upperLimitReference": "MSL", "lowerLimit": 0, "lowerLimit_uom": "FT", "lowerLimitReference": "SFC", "channel": null }, "geometry": { "type": "Point", "coordinates": [ -2.881388888888889, 52.241388888888892 ] } },
{ "type": "Feature", "properties": { "identifier": "9ef123b5-bba5-51be-a007-728c2d667d26", "name": "SKEGNESS", "stype": "TRAINING", "upperLimit": 1010, "upperLimit_uom": "FT", "upperLimitReference": "MSL", "lowerLimit": 0, "lowerLimit_uom": "FT", "lowerLimitReference": "SFC", "channel": null }, "geometry": { "type": "Point", "coordinates": [ 0.333333333333333, 53.173333333333332 ] } },
{ "type": "Feature", "properties": { "identifier": "33905269-096f-5e73-8994-75d2b7223e0a", "name": "SKELLING FARM", "stype": "GLIDER", "upperLimit": 2610, "upperLimit_uom": "FT", "upperLimitReference": "MSL", "lowerLimit": 0, "lowerLimit_uom": "FT", "lowerLimitReference": "SFC", "channel": null }, "geometry": { "type": "Point", "coordinates": [ -2.585, 54.697777777777773 ] } },
{ "type": "Feature", "properties": { "identifier": "82c1fb77-bb0f-57ca-88bf-02ed19655ba4", "name": "SLEAP", "stype": "GLIDER", "upperLimit": 1275, "upperLimit_uom": "FT", "upperLimitReference": "MSL", "lowerLimit": 0, "lowerLimit_uom": "FT", "lowerLimitReference": "SFC", "channel": null }, "geometry": { "type": "Point", "coordinates": [ -2.771666666666667, 52.833888888888893 ] } },
{ "type": "Feature", "properties": { "identifier": "b006a9c7-f041-583e-844d-63366346f7e5", "name": "SNITTERFIELD", "stype": "GLIDER", "upperLimit": 2375, "upperLimit_uom": "FT", "upperLimitReference": "MSL", "lowerLimit": 0, "lowerLimit_uom": "FT", "lowerLimitReference": "SFC", "channel": "125.185" }, "geometry": { "type": "Point", "coordinates": [ -1.719444444444445, 52.235 ] } },
{ "type": "Feature", "properties": { "identifier": "736c58bc-a3ca-5409-8cb4-7926339d4100", "name": "SPANHOE", "stype": "TRAINING", "upperLimit": 1335, "upperLimit_uom": "FT", "upperLimitReference": "MSL", "lowerLimit": 0, "lowerLimit_uom": "FT", "lowerLimitReference": "SFC", "channel": null }, "geometry": { "type": "Point", "coordinates": [ -0.605555555555556, 52.56583333333333 ] } },
{ "type": "Feature", "properties": { "identifier": "fe259854-2859-5203-ae74-f50194fbf388", "name": "ST MICHAELS", "stype": "MICROLIGHT", "upperLimit": 1030, "upperLimit_uom": "FT", "upperLimitReference": "MSL", "lowerLimit": 0, "lowerLimit_uom": "FT", "lowerLimitReference": "SFC", "channel": null }, "geometry": { "type": "Point", "coordinates": [ -2.793055555555556, 53.851666666666667 ] } },
{ "type": "Feature", "properties": { "identifier": "e2dcbf11-7c1f-544a-90c4-25f86186b976", "name": "STOKE", "stype": "MICROLIGHT", "upperLimit": 1010, "upperLimit_uom": "FT", "upperLimitReference": "MSL", "lowerLimit": 0, "lowerLimit_uom": "FT", "lowerLimitReference": "SFC", "channel": null }, "geometry": { "type": "Point", "coordinates": [ 0.637222222222222, 51.45055555555556 ] } },
{ "type": "Feature", "properties": { "identifier": "a5eb852d-5ddf-5890-a126-724b591852bc", "name": "STRATHAVEN", "stype": "MICROLIGHT", "upperLimit": 2847, "upperLimit_uom": "FT", "upperLimitReference": "MSL", "lowerLimit": 0, "lowerLimit_uom": "FT", "lowerLimitReference": "SFC", "channel": "135.475" }, "geometry": { "type": "Point", "coordinates": [ -4.115, 55.680277777777775 ] } },
{ "type": "Feature", "properties": { "identifier": "b7f9b3ff-100b-5d78-8d40-bedbe5ae1fe7", "name": "STRUBBY", "stype": "GLIDER", "upperLimit": 3047, "upperLimit_uom": "FT", "upperLimitReference": "MSL", "lowerLimit": 0, "lowerLimit_uom": "FT", "lowerLimitReference": "SFC", "channel": null }, "geometry": { "type": "Point", "coordinates": [ 0.176111111111111, 53.31 ] } },
{ "type": "Feature", "properties": { "identifier": "4ee28310-5141-5921-b5ce-b1b539fa48e2", "name": "STURGATE", "stype": "TRAINING", "upperLimit": 1058, "upperLimit_uom": "FT", "upperLimitReference": "MSL", "lowerLimit": 0, "lowerLimit_uom": "FT", "lowerLimitReference": "SFC", "channel": null }, "geometry": { "type": "Point", "coordinates": [ -0.685277777777778, 53.38111111111111 ] } },
{ "type": "Feature", "properties": { "identifier": "bd224f48-58a9-518e-90cc-a59dce073908", "name": "SUTTON BANK", "stype": "GLIDER", "upperLimit": 2920, "upperLimit_uom": "FT", "upperLimitReference": "MSL", "lowerLimit": 0, "lowerLimit_uom": "FT", "lowerLimitReference": "SFC", "channel": "118.665" }, "geometry": { "type": "Point", "coordinates": [ -1.213611111111111, 54.227222222222224 ] } },
{ "type": "Feature", "properties": { "identifier": "3ae8db19-11d4-525e-a417-6032aac4739f", "name": "SUTTON MEADOWS", "stype": "MICROLIGHT", "upperLimit": 1003, "upperLimit_uom": "FT", "upperLimitReference": "MSL", "lowerLimit": 0, "lowerLimit_uom": "FT", "lowerLimitReference": "SFC", "channel": null }, "geometry": { "type": "Point", "coordinates": [ 0.06, 52.385 ] } },
{ "type": "Feature", "properties": { "identifier": "3ec73b73-71cd-5b8e-b72b-9ca3cd760db7", "name": "SWANTON MORLEY", "stype": "MICROLIGHT", "upperLimit": 1118, "upperLimit_uom": "FT", "upperLimitReference": "MSL", "lowerLimit": 0, "lowerLimit_uom": "FT", "lowerLimitReference": "SFC", "channel": null }, "geometry": { "type": "Point", "coordinates": [ 0.961944444444444, 52.734722222222224 ] } },
{ "type": "Feature", "properties": { "identifier": "5c5f73c8-07a7-5007-8f6a-c174dd774c9b", "name": "SYERSTON", "stype": "GLIDER", "upperLimit": 3231, "upperLimit_uom": "FT", "upperLimitReference": "MSL", "lowerLimit": 0, "lowerLimit_uom": "FT", "lowerLimitReference": "SFC", "channel": "128.530" }, "geometry": { "type": "Point", "coordinates": [ -0.911666666666667, 53.023333333333333 ] } },
{ "type": "Feature", "properties": { "identifier": "e1f4aaea-8f96-592b-976a-a8992c849921", "name": "TALGARTH", "stype": "GLIDER", "upperLimit": 1970, "upperLimit_uom": "FT", "upperLimitReference": "MSL", "lowerLimit": 0, "lowerLimit_uom": "FT", "lowerLimitReference": "SFC", "channel": "122.915" }, "geometry": { "type": "Point", "coordinates": [ -3.204166666666667, 51.98 ] } },
{ "type": "Feature", "properties": { "identifier": "e01b3027-8e58-58f5-b660-d95384562086", "name": "TARSAN LANE", "stype": "MICROLIGHT", "upperLimit": 1040, "upperLimit_uom": "FT", "upperLimitReference": "MSL", "lowerLimit": 0, "lowerLimit_uom": "FT", "lowerLimitReference": "SFC", "channel": null }, "geometry": { "type": "Point", "coordinates": [ -6.437777777777778, 54.458055555555561 ] } },
{ "type": "Feature", "properties": { "identifier": "bd9db25f-7f8a-5bc2-9967-e125406edf5b", "name": "TERNHILL", "stype": "GLIDER", "upperLimit": 2272, "upperLimit_uom": "FT", "upperLimitReference": "MSL", "lowerLimit": 0, "lowerLimit_uom": "FT", "lowerLimitReference": "SFC", "channel": "120.775" }, "geometry": { "type": "Point", "coordinates": [ -2.533611111111111, 52.874166666666667 ] } },
{ "type": "Feature", "properties": { "identifier": "9f165760-68d3-5da4-b6cc-14cc1d3235ec", "name": "THE PARK", "stype": "GLIDER", "upperLimit": 3697, "upperLimit_uom": "FT", "upperLimitReference": "MSL", "lowerLimit": 0, "lowerLimit_uom": "FT", "lowerLimitReference": "SFC", "channel": "133.565" }, "geometry": { "type": "Point", "coordinates": [ -2.245833333333334, 51.12833333333333 ] } },
{ "type": "Feature", "properties": { "identifier": "b8d2e8f5-bff7-5edd-a6be-65609226094d", "name": "THORNEY ISLAND", "stype": "MICROLIGHT", "upperLimit": 1003, "upperLimit_uom": "FT", "upperLimitReference": "MSL", "lowerLimit": 0, "lowerLimit_uom": "FT", "lowerLimitReference": "SFC", "channel": null }, "geometry": { "type": "Point", "coordinates": [ -0.927222222222222, 50.813333333333333 ] } },
{ "type": "Feature", "properties": { "identifier": "bb76dc55-05e9-5709-ab75-1dcd429d0d6a", "name": "THORNHILL", "stype": "MICROLIGHT", "upperLimit": 1045, "upperLimit_uom": "FT", "upperLimitReference": "MSL", "lowerLimit": 0, "lowerLimit_uom": "FT", "lowerLimitReference": "SFC", "channel": null }, "geometry": { "type": "Point", "coordinates": [ -4.185833333333334, 56.148888888888891 ] } },
{ "type": "Feature", "properties": { "identifier": "f8984c8e-d9c7-573a-8285-37aad6144bdc", "name": "TIBENHAM", "stype": "GLIDER", "upperLimit": 3186, "upperLimit_uom": "FT", "upperLimitReference": "MSL", "lowerLimit": 0, "lowerLimit_uom": "FT", "lowerLimitReference": "SFC", "channel": "133.565" }, "geometry": { "type": "Point", "coordinates": [ 1.154166666666667, 52.456666666666671 ] } },
{ "type": "Feature", "properties": { "identifier": "1af8b19e-5e61-5108-ad8a-186c97110937", "name": "TOPCLIFFE", "stype": "GLIDER", "upperLimit": 2091, "upperLimit_uom": "FT", "upperLimitReference": "MSL", "lowerLimit": 0, "lowerLimit_uom": "FT", "lowerLimitReference": "SFC", "channel": "121.455" }, "geometry": { "type": "Point", "coordinates": [ -1.381666666666667, 54.205555555555556 ] } },
{ "type": "Feature", "properties": { "identifier": "f895ad76-b1a9-56b2-887b-df5cfd93685a", "name": "TURWESTON", "stype": "TRAINING", "upperLimit": 1438, "upperLimit_uom": "FT", "upperLimitReference": "MSL", "lowerLimit": 0, "lowerLimit_uom": "FT", "lowerLimitReference": "SFC", "channel": null }, "geometry": { "type": "Point", "coordinates": [ -1.0975, 52.040833333333332 ] } },
{ "type": "Feature", "properties": { "identifier": "93a1ca54-146d-52c8-a10d-fb6108ccef29", "name": "UPAVON", "stype": "GLIDER", "upperLimit": 3575, "upperLimit_uom": "FT", "upperLimitReference": "MSL", "lowerLimit": 0, "lowerLimit_uom": "FT", "lowerLimitReference": "SFC", "channel": "122.755" }, "geometry": { "type": "Point", "coordinates": [ -1.781111111111111, 51.286111111111111 ] } },
{ "type": "Feature", "properties": { "identifier": "c6034b96-834b-5732-90db-7d0d5d2217f9", "name": "UPWOOD", "stype": "GLIDER", "upperLimit": 2075, "upperLimit_uom": "FT", "upperLimitReference": "MSL", "lowerLimit": 0, "lowerLimit_uom": "FT", "lowerLimitReference": "SFC", "channel": null }, "geometry": { "type": "Point", "coordinates": [ -0.143333333333333, 52.43666666666666 ] } },
{ "type": "Feature", "properties": { "identifier": "8fb9358e-7cf8-5c49-b452-c91ad584404f", "name": "USK", "stype": "GLIDER", "upperLimit": 2080, "upperLimit_uom": "FT", "upperLimitReference": "MSL", "lowerLimit": 0, "lowerLimit_uom": "FT", "lowerLimitReference": "SFC", "channel": "129.980" }, "geometry": { "type": "Point", "coordinates": [ -2.850277777777778, 51.718333333333334 ] } },
{ "type": "Feature", "properties": { "identifier": "7f9cda8f-5d9a-5e66-a772-c2c821f00c72", "name": "WATER EATON", "stype": "MICROLIGHT", "upperLimit": 1270, "upperLimit_uom": "FT", "upperLimitReference": "MSL", "lowerLimit": 0, "lowerLimit_uom": "FT", "lowerLimitReference": "SFC", "channel": null }, "geometry": { "type": "Point", "coordinates": [ -1.784722222222222, 51.640555555555558 ] } },
{ "type": "Feature", "properties": { "identifier": "c3dc8696-ea92-5f99-8237-e0c09e1e3809", "name": "WATTISHAM", "stype": "GLIDER", "upperLimit": 3284, "upperLimit_uom": "FT", "upperLimitReference": "MSL", "lowerLimit": 0, "lowerLimit_uom": "FT", "lowerLimitReference": "SFC", "channel": null }, "geometry": { "type": "Point", "coordinates": [ 0.956111111111111, 52.1275 ] } },
{ "type": "Feature", "properties": { "identifier": "0799f14d-31fa-5e14-893e-6f772e0138ac", "name": "WAVERTON", "stype": "MICROLIGHT", "upperLimit": 1115, "upperLimit_uom": "FT", "upperLimitReference": "MSL", "lowerLimit": 0, "lowerLimit_uom": "FT", "lowerLimitReference": "SFC", "channel": null }, "geometry": { "type": "Point", "coordinates": [ -2.788333333333333, 53.167777777777772 ] } },
{ "type": "Feature", "properties": { "identifier": "f663a318-f175-54e8-84b7-69fb1a5466b6", "name": "WESTEND FARM", "stype": "MICROLIGHT", "upperLimit": 1240, "upperLimit_uom": "FT", "upperLimitReference": "MSL", "lowerLimit": 0, "lowerLimit_uom": "FT", "lowerLimitReference": "SFC", "channel": "129.830" }, "geometry": { "type": "Point", "coordinates": [ -2.4175, 51.594444444444449 ] } },
{ "type": "Feature", "properties": { "identifier": "1c1948a4-6fd2-5602-bd4c-b9d55f12b0b7", "name": "WESTON-ON-THE-GREEN", "stype": "GLIDER", "upperLimit": 3282, "upperLimit_uom": "FT", "upperLimitReference": "MSL", "lowerLimit": 0, "lowerLimit_uom": "FT", "lowerLimitReference": "SFC", "channel": "129.980" }, "geometry": { "type": "Point", "coordinates": [ -1.219722222222222, 51.880277777777778 ] } },
{ "type": "Feature", "properties": { "identifier": "5f37aa0d-f345-551d-a6f5-6f753c330356", "name": "WESTONZOYLAND", "stype": "MICROLIGHT", "upperLimit": 1030, "upperLimit_uom": "FT", "upperLimitReference": "MSL", "lowerLimit": 0, "lowerLimit_uom": "FT", "lowerLimitReference": "SFC", "channel": null }, "geometry": { "type": "Point", "coordinates": [ -2.914722222222222, 51.107777777777777 ] } },
{ "type": "Feature", "properties": { "identifier": "61b519d5-54fc-591a-9a31-433334dd7d21", "name": "WINGLAND", "stype": "MICROLIGHT", "upperLimit": 1010, "upperLimit_uom": "FT", "upperLimitReference": "MSL", "lowerLimit": 0, "lowerLimit_uom": "FT", "lowerLimitReference": "SFC", "channel": null }, "geometry": { "type": "Point", "coordinates": [ 0.113055555555556, 52.814166666666665 ] } },
{ "type": "Feature", "properties": { "identifier": "b96a2771-587e-553d-bcde-020dbf8708e0", "name": "WOMBLETON", "stype": "MICROLIGHT", "upperLimit": 1120, "upperLimit_uom": "FT", "upperLimitReference": "MSL", "lowerLimit": 0, "lowerLimit_uom": "FT", "lowerLimitReference": "SFC", "channel": null }, "geometry": { "type": "Point", "coordinates": [ -0.968888888888889, 54.233611111111109 ] } },
{ "type": "Feature", "properties": { "identifier": "fcb113b4-5d05-58ff-b452-a7232a2430c2", "name": "WOODVALE", "stype": "GLIDER", "upperLimit": 2037, "upperLimit_uom": "FT", "upperLimitReference": "MSL", "lowerLimit": 0, "lowerLimit_uom": "FT", "lowerLimitReference": "SFC", "channel": null }, "geometry": { "type": "Point", "coordinates": [ -3.0575, 53.581666666666671 ] } },
{ "type": "Feature", "properties": { "identifier": "a5aefe72-7817-5490-a142-de56fd956d02", "name": "WORMINGFORD", "stype": "GLIDER", "upperLimit": 3236, "upperLimit_uom": "FT", "upperLimitReference": "MSL", "lowerLimit": 0, "lowerLimit_uom": "FT", "lowerLimitReference": "SFC", "channel": "123.815" }, "geometry": { "type": "Point", "coordinates": [ 0.789722222222222, 51.941666666666663 ] } },
{ "type": "Feature", "properties": { "identifier": "0f429842-5654-5351-815d-bf06c1a366d5", "name": "WYCOMBE AIR PARK", "stype": "GLIDER", "upperLimit": 1520, "upperLimit_uom": "FT", "upperLimitReference": "MSL", "lowerLimit": 0, "lowerLimit_uom": "FT", "lowerLimitReference": "SFC", "channel": null }, "geometry": { "type": "Point", "coordinates": [ -0.808333333333333, 51.611666666666665 ] } },
{ "type": "Feature", "properties": { "identifier": "f5f786dc-d5b3-5a4b-b059-8a6466c14b18", "name": "WYTON (MIL)", "stype": "TRAINING", "upperLimit": 2128, "upperLimit_uom": "FT", "upperLimitReference": "MSL", "lowerLimit": 0, "lowerLimit_uom": "FT", "lowerLimitReference": "SFC", "channel": "134.050" }, "geometry": { "type": "Point", "coordinates": [ -0.118333333333333, 52.355555555555554 ] } },
{ "type": "Feature", "properties": { "identifier": "c9c16b3e-f9f1-5cb5-b45f-4d6d6f054976", "name": "YATESBURY", "stype": "MICROLIGHT", "upperLimit": 1525, "upperLimit_uom": "FT", "upperLimitReference": "MSL", "lowerLimit": 0, "lowerLimit_uom": "FT", "lowerLimitReference": "SFC", "channel": null }, "geometry": { "type": "Point", "coordinates": [ -1.901388888888889, 51.433888888888887 ] } },
{ "type": "Feature", "properties": { "identifier": "82ecd423-4960-5a40-a172-b7cd818234ba", "name": "YEOVILTON", "stype": "GLIDER", "upperLimit": 2075, "upperLimit_uom": "FT", "upperLimitReference": "MSL", "lowerLimit": 0, "lowerLimit_uom": "FT", "lowerLimitReference": "SFC", "channel": null }, "geometry": { "type": "Point", "coordinates": [ -2.638888888888889, 51.009444444444448 ] } },
{ "type": "Feature", "properties": { "identifier": "154bfc08-7e25-59c1-befb-f812376efb09", "name": "YORK/RUFFORTH", "stype": "GLIDER", "upperLimit": 2065, "upperLimit_uom": "FT", "upperLimitReference": "MSL", "lowerLimit": 0, "lowerLimit_uom": "FT", "lowerLimitReference": "SFC", "channel": "123.815" }, "geometry": { "type": "Point", "coordinates": [ -1.187777777777778, 53.9475 ] } }
]
}
